GAOFEN-7
1 44703U 19072A   24264.57021583  .00009947  00000+0  44226-3 0  9995
2 44703  97.3257 335.4985 0003236 123.4003 236.7543 15.21696574271159
BEIDOU-3 IGSO-3
1 44709U 19073A   24264.46742920 -.00000169  00000+0  00000+0 0  9991
2 44709  55.8888 287.7154 0041315 190.8386 169.1176  1.00273537 18098
JILIN-1 GAOFEN 2A
1 44777U 19075A   24264.60703541  .00013524  00000+0  65204-3 0  9999
2 44777  97.5684 329.6740 0010836 160.4548 199.7103 15.18783209267893
NINGXIA-1 1
1 44779U 19076A   24264.59639601  .00000116  00000+0  16020-3 0  9990
2 44779  45.0058 135.3656 0010592  30.9533 329.1924 14.01913297248803
NINGXIA-1 2
1 44780U 19076B   24264.58302021  .00000133  00000+0  17150-3 0  9998
2 44780  45.0084 135.6584 0007917  21.3130 338.8032 14.01879972248809
NINGXIA-1 3
1 44781U 19076C   24264.35396813  .00000133  00000+0  17153-3 0  9999
2 44781  44.9998 135.3114 0009747  11.7778 348.3282 14.01855287248774
NINGXIA-1 4
1 44782U 19076D   24264.62361502  .00000108  00000+0  15514-3 0  9998
2 44782  45.0084 135.1132 0013328   1.1955 358.8909 14.01913460248771
NINGXIA-1 5
1 44783U 19076E   24264.60948134  .00000128  00000+0  16845-3 0  9999
2 44783  45.0056 134.6602 0011447  20.1203 340.0081 14.01902712248721
KL-ALPHA A
1 44785U 19077A   24264.52300277  .00000113  00000+0  14405-3 0  9997
2 44785  88.9041 292.9584 0011953 150.7893 209.3931 13.55942141239726
KL-ALPHA B
1 44786U 19077B   24264.51310400  .00000094  00000+0  11611-3 0  9990
2 44786  88.8890 291.4472 0025935 195.7016 164.3336 13.55908400239177
BEIDOU-3 M22
1 44793U 19078A   24263.86978333 -.00000068  00000+0  00000+0 0  9999
2 44793  54.4889 322.0746 0004514  19.1188 340.9673  1.86232043 32818
BEIDOU-3 M21
1 44794U 19078B   24262.92544597 -.00000061  00000+0  00000+0 0  9990
2 44794  54.4632 322.0815 0002543   4.0654 356.0086  1.86232489 32802
TIBA-1
1 44800U 19080A   24264.23869021  .00000147  00000+0  00000+0 0  9993
2 44800   0.0598 349.6052 0002502 201.2237 290.2242  1.00269009 17696
INMARSAT GX5
1 44801U 19080B   24264.31114542  .00000066  00000+0  00000+0 0  9994
2 44801   0.0526  20.3103 0002467 175.8439 286.5474  1.00271468   440
CARTOSAT-3
1 44804U 19081A   24264.55067645  .00008124  00000+0  38860-3 0  9997
2 44804  97.5218 322.0084 0012739 207.9302 152.1250 15.19179079267110
GAOFEN-12 01
1 44819U 19082A   24264.59457836  .00001318  00000+0  17815-3 0  9998
2 44819  97.8241 276.3984 0003348  89.2870 270.8727 14.80672396260197
JILIN-1 GAOFEN 2B
1 44836U 19086A   24264.58656628  .00013669  00000+0  65787-3 0  9993
2 44836  97.5674 330.1088 0011703 118.8513 241.3897 15.18833051264288
COSMOS 2544 [GLONASS-M]
1 44850U 19088A   24264.11909054  .00000038  00000+0  00000+0 0  9993
2 44850  65.2317  94.9807 0011428 248.3183 111.6218  2.13102003 37180
TYVAK-0092
1 44852U 19089A   24264.57878496  .00588242  00000+0  27520-2 0  9998
2 44852  36.9247 101.3554 0018115 324.6413  35.3153 15.80549222263687
TYVAK-0129
1 44853U 19089B   24263.58881023  .01366132  92168-3  32118-2 0  9991
2 44853  36.9431  98.8287 0018039 317.3893  42.5480 15.95756092263642
DUCHIFAT-3
1 44854U 19089C   24264.13906847  .00027876  00000+0  12124-2 0  9999
2 44854  36.9547 190.6529 0007707 209.8957 150.1352 15.21425706262712
QPS-SAR-1 (IZANAGI)
1 44856U 19089E   24264.02105515  .00766934  00000+0  38004-2 0  9992
2 44856  36.9428 123.0790 0020207 299.5307  60.3445 15.78796110263322
RISAT-2BR1
1 44857U 19089F   24264.45288982  .00007517  00000+0  60916-3 0  9993
2 44857  36.9604 274.1310 0012321  69.6513 290.5551 14.99285677261784
IHOPSAT-TD
1 44859U 19089H   24264.31082651  .00006262  00000+0  43430-3 0  9993
2 44859  36.9683 249.3271 0003616  67.6850 292.4276 15.05317118262030
LEMUR-2-PAPPY
1 44861U 19089K   24264.62529936  .00411192  00000+0  28591-2 0  9994
2 44861  36.9463 112.2365 0017707 314.8591  45.0736 15.72069794263533
BEIDOU-3 M19
1 44864U 19090A   24262.87771661  .00000021  00000+0  00000+0 0  9995
2 44864  56.0039  83.9214 0015311 280.9827 239.5193  1.86231481 32387
BEIDOU-3 M20
1 44865U 19090B   24264.35631743  .00000005  00000+0  00000+0 0  9999
2 44865  56.0070  83.9052 0012918 296.4544 225.0810  1.86231410 32390
JCSAT-18 (KACIFIC 1)
1 44868U 19091A   24264.51165088 -.00000210  00000+0  00000+0 0  9994
2 44868   0.0496 345.7948 0000777 275.3348  72.9413  1.00270125 17646
CSG-1
1 44873U 19092A   24264.58738626  .00001655  00000+0  21441-3 0  9991
2 44873  97.8898  86.3528 0001611  90.7944 269.3453 14.82150524257470
CHEOPS
1 44874U 19092B   24264.45943186  .00001195  00000+0  25369-3 0  9999
2 44874  98.1547  90.7996 0009536 289.3220  70.6949 14.60901273253189
ANGELS
1 44876U 19092D   24264.49071261  .00011270  00000+0  39705-3 0  9995
2 44876  97.4722  93.3208 0009019 351.0725   9.0353 15.29425914263912
TIANQIN 1 (CAS-6)
1 44879U 19093A   24264.56856500  .00006906  00000+0  74592-3 0  9997
2 44879  97.8304 342.8445 0012602   5.9618 354.1747 14.88600203257372
ETRSS-1
1 44880U 19093B   24264.53542323  .00005674  00000+0  61173-3 0  9993
2 44880  97.8311 342.9745 0012948   6.7635 353.3755 14.88749312257361
TIANYAN 01
1 44881U 19093C   24264.51944463  .00002300  00000+0  28047-3 0  9999
2 44881  97.8214 339.4585 0014440  16.5291 343.6391 14.84253800257189
TIANYAN 02
1 44882U 19093D   24264.55422372  .00009700  00000+0  95408-3 0  9990
2 44882  97.8396 346.2167 0012685 358.2638   1.8535 14.92260260257509
CBERS 4A
1 44883U 19093E   24264.52546619  .00002927  00000+0  37825-3 0  9992
2 44883  97.8233 338.3958 0001516 104.7582 255.3799 14.81675132257103
WEILAI 1R
1 44884U 19093F   24264.55028200  .00007598  00000+0  77429-3 0  9990
2 44884  97.8310 344.8279 0011157   4.7309 355.4013 14.90930183257501
FLORIPASAT-1
1 44885U 19093G   24264.57433636  .00009522  00000+0  93735-3 0  9993
2 44885  97.8357 346.5128 0011560   4.3350 355.7967 14.92242486257588
SHUNTIAN
1 44886U 19093H   24264.51354322  .00005975  00000+0  63989-3 0  9998
2 44886  97.8408 346.0184 0013414  16.2248 343.9396 14.88996117257500
ELEKTRO-L 3
1 44903U 19095A   24264.59632873 -.00000105  00000+0  00000+0 0  9990
2 44903   0.0853 300.9042 0001004 279.7331  69.9932  1.00272195 17332
GONETS-M 14
1 44905U 19096A   24264.56961130  .00000034  00000+0  17349-3 0  9999
2 44905  82.5199 118.0844 0014251  96.6524 263.6178 12.42877493214848
GONETS-M 15
1 44906U 19096B   24264.59538039  .00000031  00000+0  14854-3 0  9996
2 44906  82.5219 118.4213 0015975 118.2250 242.0444 12.42880024214815
GONETS-M 16
1 44907U 19096C   24264.62114931  .00000032  00000+0  16217-3 0  9998
2 44907  82.5164 117.6411 0011457 157.8094 202.3483 12.42880993214808
RS-44 & BREEZE-KM R/B
1 44909U 19096E   24264.33622853  .00000015  00000+0  16062-4 0  9995
2 44909  82.5225  41.5320 0217449 188.4918 171.2480 12.79734057221141
SHIJIAN-20 (SJ-20)
1 44910U 19097A   24264.46648001 -.00000067  00000+0  00000+0 0  9993
2 44910   3.2832  82.8087 0010723 113.4891  44.4423  1.00236546 17333
TJS-5
1 44978U 20002A   24264.60188331 -.00000351  00000+0  00000+0 0  9992
2 44978   0.0209 135.9111 0003811  58.6895 129.5478  1.00272826 17338
JILIN-1 KUANFU 01
1 45016U 20003A   24264.53204892  .00009330  00000+0  50983-3 0  9994
2 45016  97.5725 336.6252 0014397 128.8571 231.3947 15.14432173259473
YINHE-1
1 45024U 20004A   24264.62885109  .00002293  00000+0  31795-3 0  9991
2 45024  86.3952  40.3704 0015803  66.3480 293.9396 14.77440299252166
GSAT-30
1 45026U 20005A   24264.59077456 -.00000174  00000+0  00000+0 0  9996
2 45026   0.0138 148.5876 0001881   9.9711 137.1013  1.00271431 17143
EUTELSAT KONNECT
1 45027U 20005B   24264.31036350  .00000041  00000+0  00000+0 0  9997
2 45027   0.0604  93.8137 0000851 107.7900 277.0288  1.00268908 17960
JCSAT-17
1 45245U 20013A   24264.56646431 -.00000326  00000+0  00000+0 0  9999
2 45245   5.5426 350.7309 0004209 186.7244 162.3995  1.00271777 16866
GEO-KOMPSAT-2B
1 45246U 20013B   24260.97289484 -.00000353  00000+0  00000+0 0  9992
2 45246   0.0442 330.9324 0001527 259.3864 244.5912  1.00269779 16880
MERIDIAN 9
1 45254U 20015A   24264.40464681  .00000004  00000+0  00000+0 0  9991
2 45254  64.8292  29.4825 6958950 287.4665  12.0545  2.00600289 33553
BEIDOU-3 G2
1 45344U 20017A   24264.53937267 -.00000149  00000+0  00000+0 0  9993
2 45344   2.4404  33.0228 0003639 183.4835  57.6150  1.00270619 16891
COSMOS 2545 [GLONASS-M]
1 45358U 20018A   24264.31592037 -.00000060  00000+0  00000+0 0  9999
2 45358  64.7026 334.6465 0011322 239.3916 120.5642  2.13102395 35133
YAOGAN-30 07A
1 45460U 20021A   24264.60811655  .00005769  00000+0  49969-3 0  9990
2 45460  34.9937 103.6819 0004421 227.5468 132.4865 14.96522902245201
YAOGAN-30 07B
1 45461U 20021B   24264.58572527  .00005715  00000+0  49515-3 0  9998
2 45461  34.9931 103.4453 0001871  97.6816 262.4102 14.96525241245136
YAOGAN-30 07C
1 45462U 20021C   24264.56379031  .00005665  00000+0  49104-3 0  9990
2 45462  34.9948 101.5718 0003029 285.8875  74.1497 14.96507879245188
AEHF-6 (USA 298)
1 45465U 20022B   24264.55092774 -.00000311  00000+0  00000+0 0  9991
2 45465   4.0038 298.2800 0042808   1.9978  35.6926  1.00267881 16658
XINGYUN-2 01
1 45602U 20028A   24264.54977720  .00005599  00000+0  38204-3 0  9995
2 45602  97.4568 262.0818 0008930 216.3213 143.7410 15.06567166239099
XINGYUN-2 02
1 45603U 20028B   24264.54166452  .00003992  00000+0  27316-3 0  9995
2 45603  97.5159 272.4989 0010030 293.5873  66.4301 15.06630438239097
COSMOS 2546
1 45608U 20031A   24263.96090963  .00000113  00000+0  00000+0 0  9991
2 45608  63.1009 140.2610 6740964 264.9495  21.3164  2.00606627 31722
XJS G
1 45611U 20032A   24264.43638022  .00032218  00000+0  76050-3 0  9996
2 45611  35.0286 170.8522 0006896 265.5074  94.4859 15.40854548242029
GAOFEN-9 02
1 45625U 20034B   24264.59379941  .00012795  00000+0  52848-3 0  9999
2 45625  97.4990  47.9445 0009625 349.2033  10.8996 15.24105948239524
